LANDSAT 9               
1 49260U 21088A   23240.95227696  .00000447  00000+0  10942-3 0  9990
2 49260  98.2248 309.9568 0001461  98.6454 261.4910 14.57102320101981
